{
  "type": "FeatureCollection",
  "features": [
    {
      "type": "Feature",
      "properties": {
        "norad_id": 44231,
        "name": "BEIDOU-2 G8 (C01)",
        "group": "gnss",
        "lat": 1.0501561278798852,
        "lon": -144.42198866327496,
        "alt_km": 35800.72221209283,
        "timestamp": "2025-12-21T22:41:41.704310+00:00",
        "meta_object_name": "BEIDOU-2 G8 (C01)",
        "meta_object_id": "2019-027A",
        "meta_epoch": "2025-12-19T12:14:23.449632",
        "meta_mean_motion": 1.00276563,
        "meta_eccentricity": 0.0008196,
        "meta_inclination": 1.6785,
        "meta_ra_of_asc_node": 74.7229,
        "meta_arg_of_pericenter": 258.5641,
        "meta_mean_anomaly": 83.1013,
        "meta_ephemeris_type": 0,
        "meta_classification_type": "U",
        "meta_norad_cat_id": 44231,
        "meta_element_set_no": 999,
        "meta_rev_at_epoch": 2427,
        "meta_bstar": 0,
        "meta_mean_motion_dot": -2.24e-06,
        "meta_mean_motion_ddot": 0,
        "tle_line1": "1 44231U 19027A   25353.50999363 -.00000224  00000+0  00000+0 0  9992",
        "tle_line2": "2 44231   1.6785  74.7229 0008196 258.5641  83.1013  1.00276563 24270"
      },
      "geometry": {
        "type": "Point",
        "coordinates": [
          -144.42198866327496,
          1.0501561278798852
        ]
      }
    },
    {
      "type": "Feature",
      "properties": {
        "norad_id": 44299,
        "name": "COSMOS 2534 (758)",
        "group": "gnss",
        "lat": -54.805552882419036,
        "lon": 61.524915516632085,
        "alt_km": 19118.650967630867,
        "timestamp": "2025-12-21T22:41:41.704323+00:00",
        "meta_object_name": "COSMOS 2534 (758)",
        "meta_object_id": "2019-030A",
        "meta_epoch": "2025-12-21T10:55:51.060576",
        "meta_mean_motion": 2.13102432,
        "meta_eccentricity": 0.00087289,
        "meta_inclination": 64.366,
        "meta_ra_of_asc_node": 198.5992,
        "meta_arg_of_pericenter": 284.1192,
        "meta_mean_anomaly": 304.9695,
        "meta_ephemeris_type": 0,
        "meta_classification_type": "U",
        "meta_norad_cat_id": 44299,
        "meta_element_set_no": 999,
        "meta_rev_at_epoch": 5113,
        "meta_bstar": 0,
        "meta_mean_motion_dot": 9.7e-07,
        "meta_mean_motion_ddot": 0,
        "tle_line1": "1 44299U 19030A   25355.45545209  .00000097  00000+0  00000+0 0  9999",
        "tle_line2": "2 44299  64.3660 198.5992 0008728 284.1192 304.9695  2.13102432 51134"
      },
      "geometry": {
        "type": "Point",
        "coordinates": [
          61.524915516632085,
          -54.805552882419036
        ]
      }
    },
    {
      "type": "Feature",
      "properties": {
        "norad_id": 44337,
        "name": "BEIDOU-3 IGSO-2 (C39)",
        "group": "gnss",
        "lat": 24.342105353357702,
        "lon": 178.7457728506572,
        "alt_km": 35941.538130960296,
        "timestamp": "2025-12-21T22:41:41.704334+00:00",
        "meta_object_name": "BEIDOU-3 IGSO-2 (C39)",
        "meta_object_id": "2019-035A",
        "meta_epoch": "2025-12-21T14:41:08.547936",
        "meta_mean_motion": 1.00268657,
        "meta_eccentricity": 0.00376681,
        "meta_inclination": 55.2285,
        "meta_ra_of_asc_node": 160.4234,
        "meta_arg_of_pericenter": 202.252,
        "meta_mean_anomaly": 67.4255,
        "meta_ephemeris_type": 0,
        "meta_classification_type": "U",
        "meta_norad_cat_id": 44337,
        "meta_element_set_no": 999,
        "meta_rev_at_epoch": 2388,
        "meta_bstar": 0,
        "meta_mean_motion_dot": -7.3e-07,
        "meta_mean_motion_ddot": 0,
        "tle_line1": "1 44337U 19035A   25355.61190449 -.00000073  00000+0  00000+0 0  9992",
        "tle_line2": "2 44337  55.2285 160.4234 0037668 202.2520  67.4255  1.00268657 23888"
      },
      "geometry": {
        "type": "Point",
        "coordinates": [
          178.7457728506572,
          24.342105353357702
        ]
      }
    },
    {
      "type": "Feature",
      "properties": {
        "norad_id": 44506,
        "name": "GPS BIII-2  (PRN 18)",
        "group": "gnss",
        "lat": -22.59483526982418,
        "lon": 174.66146497758663,
        "alt_km": 20033.94303275266,
        "timestamp": "2025-12-21T22:41:41.704346+00:00",
        "meta_object_name": "GPS BIII-2  (PRN 18)",
        "meta_object_id": "2019-056A",
        "meta_epoch": "2025-12-21T09:31:28.987392",
        "meta_mean_motion": 2.00566631,
        "meta_eccentricity": 0.00577334,
        "meta_inclination": 55.7184,
        "meta_ra_of_asc_node": 338.2094,
        "meta_arg_of_pericenter": 198.5612,
        "meta_mean_anomaly": 332.7674,
        "meta_ephemeris_type": 0,
        "meta_classification_type": "U",
        "meta_norad_cat_id": 44506,
        "meta_element_set_no": 999,
        "meta_rev_at_epoch": 4650,
        "meta_bstar": 0,
        "meta_mean_motion_dot": -7.2e-07,
        "meta_mean_motion_ddot": 0,
        "tle_line1": "1 44506U 19056A   25355.39686328 -.00000072  00000+0  00000+0 0  9993",
        "tle_line2": "2 44506  55.7184 338.2094 0057733 198.5612 332.7674  2.00566631 46503"
      },
      "geometry": {
        "type": "Point",
        "coordinates": [
          174.66146497758663,
          -22.59483526982418
        ]
      }
    },
    {
      "type": "Feature",
      "properties": {
        "norad_id": 44542,
        "name": "BEIDOU-3 M24 (C46)",
        "group": "gnss",
        "lat": -48.986498345714715,
        "lon": 133.19904718938193,
        "alt_km": 21535.486351511732,
        "timestamp": "2025-12-21T22:41:41.704358+00:00",
        "meta_object_name": "BEIDOU-3 M24 (C46)",
        "meta_object_id": "2019-061A",
        "meta_epoch": "2025-12-20T23:21:37.865088",
        "meta_mean_motion": 1.86229471,
        "meta_eccentricity": 0.0009592,
        "meta_inclination": 54.4004,
        "meta_ra_of_asc_node": 188.7381,
        "meta_arg_of_pericenter": 25.7188,
        "meta_mean_anomaly": 334.3821,
        "meta_ephemeris_type": 0,
        "meta_classification_type": "U",
        "meta_norad_cat_id": 44542,
        "meta_element_set_no": 999,
        "meta_rev_at_epoch": 4247,
        "meta_bstar": 0,
        "meta_mean_motion_dot": 9.6e-07,
        "meta_mean_motion_ddot": 0,
        "tle_line1": "1 44542U 19061A   25354.97335492  .00000096  00000+0  00000+0 0  9990",
        "tle_line2": "2 44542  54.4004 188.7381 0009592  25.7188 334.3821  1.86229471 42471"
      },
      "geometry": {
        "type": "Point",
        "coordinates": [
          133.19904718938193,
          -48.986498345714715
        ]
      }
    },
    {
      "type": "Feature",
      "properties": {
        "norad_id": 44543,
        "name": "BEIDOU-3 M23 (C45)",
        "group": "gnss",
        "lat": -19.823728608533475,
        "lon": 23.655034176991045,
        "alt_km": 21548.033071710408,
        "timestamp": "2025-12-21T22:41:41.704369+00:00",
        "meta_object_name": "BEIDOU-3 M23 (C45)",
        "meta_object_id": "2019-061B",
        "meta_epoch": "2025-12-21T09:48:50.565312",
        "meta_mean_motion": 1.86227721,
        "meta_eccentricity": 0.00060743,
        "meta_inclination": 54.3995,
        "meta_ra_of_asc_node": 188.6918,
        "meta_arg_of_pericenter": 25.4235,
        "meta_mean_anomaly": 179.4087,
        "meta_ephemeris_type": 0,
        "meta_classification_type": "U",
        "meta_norad_cat_id": 44543,
        "meta_element_set_no": 999,
        "meta_rev_at_epoch": 4248,
        "meta_bstar": 0,
        "meta_mean_motion_dot": 9.5e-07,
        "meta_mean_motion_ddot": 0,
        "tle_line1": "1 44543U 19061B   25355.40891858  .00000095  00000+0  00000+0 0  9992",
        "tle_line2": "2 44543  54.3995 188.6918 0006074  25.4235 179.4087  1.86227721 42486"
      },
      "geometry": {
        "type": "Point",
        "coordinates": [
          23.655034176991045,
          -19.823728608533475
        ]
      }
    },
    {
      "type": "Feature",
      "properties": {
        "norad_id": 44624,
        "name": "EUTELSAT 5 WEST B (EGNOS/PRN 121)",
        "group": "gnss",
        "lat": 0.08887465334650069,
        "lon": 66.19133953621446,
        "alt_km": 35797.84712351746,
        "timestamp": "2025-12-21T22:41:41.704380+00:00",
        "meta_object_name": "EUTELSAT 5 WEST B (EGNOS/PRN 121)",
        "meta_object_id": "2019-067A",
        "meta_epoch": "2025-12-21T09:44:56.694336",
        "meta_mean_motion": 1.00271339,
        "meta_eccentricity": 0.00030095,
        "meta_inclination": 0.0661,
        "meta_ra_of_asc_node": 336.7773,
        "meta_arg_of_pericenter": 293.2552,
        "meta_mean_anomaly": 321.4345,
        "meta_ephemeris_type": 0,
        "meta_classification_type": "U",
        "meta_norad_cat_id": 44624,
        "meta_element_set_no": 999,
        "meta_rev_at_epoch": 2265,
        "meta_bstar": 0,
        "meta_mean_motion_dot": -1.9e-07,
        "meta_mean_motion_ddot": 0,
        "tle_line1": "1 44624U 19067A   25355.40621174 -.00000019  00000+0  00000+0 0  9997",
        "tle_line2": "2 44624   0.0661 336.7773 0003009 293.2552 321.4345  1.00271339 22654"
      },
      "geometry": {
        "type": "Point",
        "coordinates": [
          66.19133953621446,
          0.08887465334650069
        ]
      }
    }
  ]
}